NORAD_CAT_ID,OBJECT_NAME,OBJECT_TYPE,EPOCH,MEAN_MOTION,ECCENTRICITY,INCLINATION,RA_OF_ASC_NODE,ARG_OF_PERICENTER,MEAN_ANOMALY,BSTAR,MEAN_MOTION_DOT,MEAN_MOTION_DDOT,TLE_LINE0,TLE_LINE1,TLE_LINE2,SEMIMAJOR_AXIS,PERIOD,APOGEE,PERIGEE,DECAYED
54801.0,STARLINK-5429,PAYLOAD,2023-10-14 15:51:20,15.08858707,0.0001627,53.2173,20.8161,94.9224,265.1954,0.00026925,4.002e-05,0.0,0 STARLINK-5429,1 54801U 22175AV  23287.66065044  .00004002  00000-0  26925-3 0  9991,2 54801  53.2173  20.8161 0001627  94.9224 265.1954 15.08858707 45364,6917.823,95.436,540.814,538.563,0.0
54801.0,STARLINK-5429,PAYLOAD,2023-10-14 23:48:16,15.08834949,0.0001539,53.2187,19.3334,86.5115,273.6053,-3.3326e-05,-8.18e-06,0.0,0 STARLINK-5429,1 54801U 22175AV  23287.99186268 -.00000818  00000-0 -33326-4 0  9996,2 54801  53.2187  19.3334 0001539  86.5115 273.6053 15.08834949 45414,6917.896,95.438,540.825,538.696,0.0
54801.0,STARLINK-5429,PAYLOAD,2023-10-15 12:31:22,15.08828816,0.0001627,53.218,16.9512,97.5273,262.5904,-0.00014664,-2.62e-05,0.0,0 STARLINK-5429,1 54801U 22175AV  23288.52178967 -.00002620  00000-0 -14664-3 0  9999,2 54801  53.2180  16.9512 0001627  97.5273 262.5904 15.08828816 45499,6917.915,95.438,540.905,538.654,0.0
54801.0,STARLINK-5429,PAYLOAD,2023-10-15 15:42:08,15.08829533,0.0001734,53.2174,16.3548,102.0957,258.0229,-0.00013635,-2.457e-05,0.0,0 STARLINK-5429,1 54801U 22175AV  23288.65426998 -.00002457  00000-0 -13635-3 0  9998,2 54801  53.2174  16.3548 0001734 102.0957 258.0229 15.08829533 47674,6917.912,95.438,540.977,538.578,0.0
54801.0,STARLINK-5429,PAYLOAD,2023-10-16 12:22:09,15.08847409,0.0001596,53.2174,12.4916,97.6227,262.4946,0.00022892,3.358e-05,0.0,0 STARLINK-5429,1 54801U 22175AV  23289.51538384  .00003358  00000-0  22892-3 0  9991,2 54801  53.2174  12.4916 0001596  97.6227 262.4946 15.08847409 45647,6917.858,95.437,540.827,538.619,0.0
54801.0,STARLINK-5429,PAYLOAD,2023-10-16 15:32:55,15.08848945,0.0001505,53.2176,11.8966,98.2877,261.8286,0.00036933,5.596e-05,0.0,0 STARLINK-5429,1 54801U 22175AV  23289.64786484  .00005596  00000-0  36933-3 0  9998,2 54801  53.2176  11.8966 0001505  98.2877 261.8286 15.08848945 47823,6917.853,95.437,540.759,538.677,0.0
54801.0,STARLINK-5429,PAYLOAD,2023-10-17 10:37:33,15.08852714,0.0001813,53.2179,8.3272,114.1869,245.9313,0.00040187,6.116e-05,0.0,0 STARLINK-5429,1 54801U 22175AV  23290.44274471  .00006116  00000-0  40187-3 0  9991,2 54801  53.2179   8.3272 0001813 114.1869 245.9313 15.08852714 45784,6917.842,95.437,540.961,538.452,0.0
54801.0,STARLINK-5429,PAYLOAD,2023-10-17 12:12:56,15.08856963,0.0001403,53.2177,8.031,96.4924,263.6228,0.00069583,0.00010809,0.0,0 STARLINK-5429,1 54801U 22175AV  23290.50898454  .00010809  00000-0  69583-3 0  9996,2 54801  53.2177   8.0310 0001403  96.4924 263.6228 15.08856963 47954,6917.829,95.436,540.664,538.723,0.0
54801.0,STARLINK-5429,PAYLOAD,2023-10-17 21:45:15,15.08852476,0.0001418,53.2184,6.2468,95.1667,264.9487,0.00065661,0.00010181,0.0,0 STARLINK-5429,1 54801U 22175AV  23290.90642398  .00010181  00000-0  65661-3 0  9990,2 54801  53.2184   6.2468 0001418  95.1667 264.9487 15.08852476 48016,6917.842,95.437,540.688,538.726,0.0
54801.0,STARLINK-5429,PAYLOAD,2023-10-18 10:28:20,15.08840112,0.0001495,53.2187,3.8691,97.5211,262.5951,0.00016895,2.402e-05,0.0,0 STARLINK-5429,1 54801U 22175AV  23291.43634778  .00002402  00000-0  16895-3 0  9994,2 54801  53.2187   3.8691 0001495  97.5211 262.5951 15.08840112 45938,6917.88,95.438,540.779,538.711,0.0
54801.0,STARLINK-5429,PAYLOAD,2023-10-18 21:36:02,15.08841644,0.000153,53.2181,1.7905,95.2271,264.8896,0.00048364,7.418e-05,0.0,0 STARLINK-5429,1 54801U 22175AV  23291.90002942  .00007418  00000-0  48364-3 0  9996,2 54801  53.2181   1.7905 0001530  95.2271 264.8896 15.08841644 48160,6917.875,95.437,540.799,538.682,0.0
54801.0,STARLINK-5429,PAYLOAD,2023-10-19 10:19:07,15.08855008,0.0001266,53.2171,359.4107,94.3019,265.8118,0.00063441,9.827e-05,0.0,0 STARLINK-5429,1 54801U 22175AV  23292.42994436  .00009827  00000-0  63441-3 0  9991,2 54801  53.2171 359.4107 0001266  94.3019 265.8118 15.08855008 48248,6917.835,95.437,540.575,538.824,0.0
54801.0,STARLINK-5429,PAYLOAD,2023-10-19 21:26:49,15.08854052,0.0001596,53.2177,357.3269,81.9879,278.1295,0.00051201,7.873e-05,0.0,0 STARLINK-5429,1 54801U 22175AV  23292.89362341  .00007873  00000-0  51201-3 0  9996,2 54801  53.2177 357.3269 0001596  81.9879 278.1295 15.08854052 48311,6917.837,95.437,540.807,538.598,0.0
54801.0,STARLINK-5429,PAYLOAD,2023-10-20 11:45:17,15.08843281,0.0001614,53.2159,354.6514,82.0352,278.0824,0.00016859,2.396e-05,0.0,0 STARLINK-5429,1 54801U 22175AV  23293.48978578  .00002396  00000-0  16859-3 0  9992,2 54801  53.2159 354.6514 0001614  82.0352 278.0824 15.08843281 46242,6917.87,95.437,540.852,538.619,0.0
54801.0,STARLINK-5429,PAYLOAD,2023-10-20 13:20:40,15.08848023,0.0001693,53.2162,354.3543,82.1686,277.9498,0.00032656,4.914e-05,0.0,0 STARLINK-5429,1 54801U 22175AV  23293.55602500  .00004914  00000-0  32656-3 0  9990,2 54801  53.2162 354.3543 0001693  82.1686 277.9498 15.08848023 48418,6917.856,95.437,540.892,538.55,0.0
54801.0,STARLINK-5429,PAYLOAD,2023-10-21 10:00:41,15.0883898,0.0001903,53.2179,350.4876,104.1764,255.944,0.00016501,2.339e-05,0.0,0 STARLINK-5429,1 54801U 22175AV  23294.41715102  .00002339  00000-0  16501-3 0  9999,2 54801  53.2179 350.4876 0001903 104.1764 255.9440 15.08838980 46386,6917.884,95.438,541.065,538.432,0.0
54801.0,STARLINK-5429,PAYLOAD,2023-10-21 13:11:28,15.08844278,0.0001886,53.2174,349.8919,90.4689,269.6519,0.00047388,7.263e-05,0.0,0 STARLINK-5429,1 54801U 22175AV  23294.54963089  .00007263  00000-0  47388-3 0  9990,2 54801  53.2174 349.8919 0001886  90.4689 269.6519 15.08844278 48562,6917.867,95.437,541.037,538.428,0.0
54801.0,STARLINK-5429,PAYLOAD,2023-10-21 21:08:24,15.08835974,0.0001885,53.2182,348.4064,79.9981,280.1223,0.0002775,4.131e-05,0.0,0 STARLINK-5429,1 54801U 22175AV  23294.88083562  .00004131  00000-0  27750-3 0  9998,2 54801  53.2182 348.4064 0001885  79.9981 280.1223 15.08835974 48612,6917.893,95.438,541.062,538.454,0.0
54801.0,STARLINK-5429,PAYLOAD,2023-10-22 09:51:29,15.08842193,0.0001801,53.2182,346.0252,85.2877,274.8321,0.00034294,5.174e-05,0.0,0 STARLINK-5429,1 54801U 22175AV  23295.41075444  .00005174  00000-0  34294-3 0  9997,2 54801  53.2182 346.0252 0001801  85.2877 274.8321 15.08842193 48695,6917.874,95.437,540.985,538.493,0.0
54801.0,STARLINK-5429,PAYLOAD,2023-10-22 20:59:11,15.08845081,0.0001748,53.2185,343.9446,82.2143,277.9047,0.00040742,6.203e-05,0.0,0 STARLINK-5429,1 54801U 22175AV  23295.87443456  .00006203  00000-0  40742-3 0  9998,2 54801  53.2185 343.9446 0001748  82.2143 277.9047 15.08845081 48768,6917.865,95.437,540.939,538.521,0.0
54801.0,STARLINK-5429,PAYLOAD,2023-10-23 09:42:16,15.08841068,0.0001865,53.2183,341.5648,89.3267,270.7939,0.00011564,1.553e-05,0.0,0 STARLINK-5429,1 54801U 22175AV  23296.40435617  .00001553  00000-0  11564-3 0  9991,2 54801  53.2183 341.5648 0001865  89.3267 270.7939 15.08841068 46680,6917.877,95.437,541.032,538.452,0.0
54801.0,STARLINK-5429,PAYLOAD,2023-10-24 09:33:03,15.08840164,0.0001963,53.2183,337.1041,91.6396,268.4821,9.816e-05,1.274e-05,0.0,0 STARLINK-5429,1 54801U 22175AV  23297.39795782  .00001274  00000-0  98160-4 0  9990,2 54801  53.2183 337.1041 0001963  91.6396 268.4821 15.08840164 48992,6917.88,95.438,541.103,538.387,0.0
54801.0,STARLINK-5429,PAYLOAD,2023-10-25 09:23:50,15.08843363,0.0001905,53.2179,332.6455,91.0923,269.0287,0.00015069,2.111e-05,0.0,0 STARLINK-5429,1 54801U 22175AV  23298.39155590  .00002111  00000-0  15069-3 0  9995,2 54801  53.2179 332.6455 0001905  91.0923 269.0287 15.08843363 46986,6917.87,95.437,541.053,538.417,0.0
54801.0,STARLINK-5429,PAYLOAD,2023-10-26 01:17:42,15.08838384,0.0001958,53.2181,329.6726,97.6042,262.5172,9.3455e-05,1.199e-05,0.0,0 STARLINK-5429,1 54801U 22175AV  23299.05396039  .00001199  00000-0  93455-4 0  9995,2 54801  53.2181 329.6726 0001958  97.6042 262.5172 15.08838384 47088,6917.885,95.438,541.105,538.396,0.0
54801.0,STARLINK-5429,PAYLOAD,2023-10-26 10:50:01,15.08838081,0.0001879,53.2188,327.8887,95.7631,264.3575,6.7307e-05,7.83e-06,0.0,0 STARLINK-5429,1 54801U 22175AV  23299.45140151  .00000783  00000-0  67307-4 0  9996,2 54801  53.2188 327.8887 0001879  95.7631 264.3575 15.08838081 49306,6917.886,95.438,541.051,538.451,0.0
54801.0,STARLINK-5429,PAYLOAD,2023-10-26 18:46:56,15.08839304,0.0001878,53.2188,326.4017,97.1855,262.9351,7.0465e-05,8.33e-06,0.0,0 STARLINK-5429,1 54801U 22175AV  23299.78260071  .00000833  00000-0  70465-4 0  9991,2 54801  53.2188 326.4017 0001878  97.1855 262.9351 15.08839304 49359,6917.883,95.438,541.047,538.448,0.0
54801.0,STARLINK-5429,PAYLOAD,2023-10-27 02:43:51,15.08845786,0.000176,53.2179,324.914,94.9084,265.2109,9.797e-05,1.272e-05,0.0,0 STARLINK-5429,1 54801U 22175AV  23300.11379589  .00001272  00000-0  97970-4 0  9994,2 54801  53.2179 324.9140 0001760  94.9084 265.2109 15.08845786 47242,6917.863,95.437,540.945,538.51,0.0
54801.0,STARLINK-5429,PAYLOAD,2023-10-27 12:16:10,15.08858226,0.0001844,53.2172,323.13,92.8586,267.2618,0.00037074,5.62e-05,0.0,0 STARLINK-5429,1 54801U 22175AV  23300.51122914  .00005620  00000-0  37074-3 0  9995,2 54801  53.2172 323.1300 0001844  92.8586 267.2618 15.08858226 47308,6917.825,95.436,540.965,538.414,0.0
54801.0,STARLINK-5429,PAYLOAD,2023-10-27 18:37:43,15.08844214,0.0002313,53.2163,321.9399,85.394,274.7317,0.00010992,1.462e-05,0.0,0 STARLINK-5429,1 54801U 22175AV  23300.77619566  .00001462  00000-0  10992-3 0  9997,2 54801  53.2163 321.9399 0002313  85.3940 274.7317 15.08844214 47340,6917.868,95.437,541.333,538.132,0.0
54801.0,STARLINK-5429,PAYLOAD,2023-10-28 08:56:11,15.08830975,0.0001803,53.2158,319.2642,85.9174,274.2025,-0.00012185,-2.226e-05,0.0,0 STARLINK-5429,1 54801U 22175AV  23301.37236074 -.00002226  00000-0 -12185-3 0  9990,2 54801  53.2158 319.2642 0001803  85.9174 274.2025 15.08830975 47433,6917.908,95.438,541.02,538.526,0.0
